[{"OBJECT_NAME":"STARLINK-30828","OBJECT_ID":"2023-211E","EPOCH":"2026-03-09T02:22:30.516384","MEAN_MOTION":15.27575909,"ECCENTRICITY":6.617e-5,"INCLINATION":43.0035,"RA_OF_ASC_NODE":88.6664,"ARG_OF_PERICENTER":262.8442,"MEAN_ANOMALY":97.2335,"EPHEMERIS_TYPE":0,"CLASSIFICATION_TYPE":"U","NORAD_CAT_ID":58671,"ELEMENT_SET_NO":999,"REV_AT_EPOCH":12237,"BSTAR":-1.1230175e-5,"MEAN_MOTION_DOT":-5.71e-6,"MEAN_MOTION_DDOT":0},{"OBJECT_NAME":"HERMES-3","OBJECT_ID":"2025-052BR","EPOCH":"2026-03-09T22:30:01.073952","MEAN_MOTION":15.30039786,"ECCENTRICITY":0.00079928,"INCLINATION":97.3987,"RA_OF_ASC_NODE":324.6131,"ARG_OF_PERICENTER":112.9583,"MEAN_ANOMALY":247.2502,"EPHEMERIS_TYPE":0,"CLASSIFICATION_TYPE":"U","NORAD_CAT_ID":63835,"ELEMENT_SET_NO":999,"REV_AT_EPOCH":5486,"BSTAR":0.0006995793,"MEAN_MOTION_DOT":0.00020316,"MEAN_MOTION_DDOT":0}]
